{
 "generated_at": "2026-07-01T08:50:10Z",
 "sources": [
  {
   "name": "CelesTrak",
   "url": "https://celestrak.org/NORAD/elements/",
   "license": "frei verfügbar; Attribution. Ursprünglich USSPACECOM/Space-Track."
  },
  {
   "name": "GCAT (J. McDowell, planet4589.org)",
   "url": "https://planet4589.org/space/gcat/",
   "license": "CC-BY 4.0"
  }
 ],
 "satellites": [
  {
   "norad": 64572,
   "name": "ICEYE-X52",
   "intl": "2025-135AW",
   "group": "sar",
   "gcat": {
    "class": "B",
    "category": "IMG-R",
    "owner": "ICEYE",
    "state": "FI"
   },
   "omm": {
    "OBJECT_NAME": "ICEYE-X52",
    "OBJECT_ID": "2025-135AW",
    "EPOCH": "2026-06-30T22:30:20.540736",
    "MEAN_MOTION": 14.93609167,
    "ECCENTRICITY": 0.00005402,
    "INCLINATION": 97.7759,
    "RA_OF_ASC_NODE": 296.0358,
    "ARG_OF_PERICENTER": 311.3992,
    "MEAN_ANOMALY": 48.7181,
    "EPHEMERIS_TYPE": 0,
    "CLASSIFICATION_TYPE": "U",
    "NORAD_CAT_ID": 64572,
    "ELEMENT_SET_NO": 999,
    "REV_AT_EPOCH": 5593,
    "BSTAR": 0.00022349355,
    "MEAN_MOTION_DOT": 0.00002302,
    "MEAN_MOTION_DDOT": 0
   }
  },
  {
   "norad": 64584,
   "name": "ICEYE-X53",
   "intl": "2025-135BJ",
   "group": "sar",
   "gcat": {
    "class": "B",
    "category": "IMG-R",
    "owner": "ICEYE",
    "state": "FI"
   },
   "omm": {
    "OBJECT_NAME": "ICEYE-X53",
    "OBJECT_ID": "2025-135BJ",
    "EPOCH": "2026-06-30T21:23:19.436352",
    "MEAN_MOTION": 15.00920684,
    "ECCENTRICITY": 0.0001448,
    "INCLINATION": 97.738,
    "RA_OF_ASC_NODE": 298.6151,
    "ARG_OF_PERICENTER": 165.6144,
    "MEAN_ANOMALY": 194.5122,
    "EPHEMERIS_TYPE": 0,
    "CLASSIFICATION_TYPE": "U",
    "NORAD_CAT_ID": 64584,
    "ELEMENT_SET_NO": 999,
    "REV_AT_EPOCH": 5613,
    "BSTAR": 0.000056222811,
    "MEAN_MOTION_DOT": 0.00000656,
    "MEAN_MOTION_DDOT": 0
   }
  },
  {
   "norad": 64570,
   "name": "ICEYE-X54",
   "intl": "2025-135AU",
   "group": "sar",
   "gcat": {
    "class": "B",
    "category": "IMG-R",
    "owner": "ICEYE",
    "state": "FI"
   },
   "omm": {
    "OBJECT_NAME": "ICEYE-X54",
    "OBJECT_ID": "2025-135AU",
    "EPOCH": "2026-06-30T22:47:58.044768",
    "MEAN_MOTION": 14.94627671,
    "ECCENTRICITY": 0.00007534,
    "INCLINATION": 97.7745,
    "RA_OF_ASC_NODE": 296.2392,
    "ARG_OF_PERICENTER": 247.4875,
    "MEAN_ANOMALY": 112.6266,
    "EPHEMERIS_TYPE": 0,
    "CLASSIFICATION_TYPE": "U",
    "NORAD_CAT_ID": 64570,
    "ELEMENT_SET_NO": 999,
    "REV_AT_EPOCH": 5595,
    "BSTAR": 0.00022360726,
    "MEAN_MOTION_DOT": 0.00002364,
    "MEAN_MOTION_DDOT": 0
   }
  },
  {
   "norad": 64581,
   "name": "ICEYE-X55",
   "intl": "2025-135BF",
   "group": "sar",
   "gcat": {
    "class": "B",
    "category": "IMG-R",
    "owner": "ICEYE",
    "state": "FI"
   },
   "omm": {
    "OBJECT_NAME": "ICEYE-X55",
    "OBJECT_ID": "2025-135BF",
    "EPOCH": "2026-06-30T22:49:20.103168",
    "MEAN_MOTION": 14.95291781,
    "ECCENTRICITY": 0.0001889,
    "INCLINATION": 97.7766,
    "RA_OF_ASC_NODE": 296.6363,
    "ARG_OF_PERICENTER": 325.219,
    "MEAN_ANOMALY": 34.8907,
    "EPHEMERIS_TYPE": 0,
    "CLASSIFICATION_TYPE": "U",
    "NORAD_CAT_ID": 64581,
    "ELEMENT_SET_NO": 999,
    "REV_AT_EPOCH": 5597,
    "BSTAR": 0.00030778249,
    "MEAN_MOTION_DOT": 0.00003333,
    "MEAN_MOTION_DDOT": 0
   }
  },
  {
   "norad": 64574,
   "name": "ICEYE-X56",
   "intl": "2025-135AY",
   "group": "sar",
   "gcat": {
    "class": "B",
    "category": "IMG-R",
    "owner": "ICEYE",
    "state": "FI"
   },
   "omm": {
    "OBJECT_NAME": "ICEYE-X56",
    "OBJECT_ID": "2025-135AY",
    "EPOCH": "2026-06-30T22:44:05.539776",
    "MEAN_MOTION": 14.95693514,
    "ECCENTRICITY": 0.00004865,
    "INCLINATION": 97.7768,
    "RA_OF_ASC_NODE": 296.7979,
    "ARG_OF_PERICENTER": 328.7549,
    "MEAN_ANOMALY": 31.3643,
    "EPHEMERIS_TYPE": 0,
    "CLASSIFICATION_TYPE": "U",
    "NORAD_CAT_ID": 64574,
    "ELEMENT_SET_NO": 999,
    "REV_AT_EPOCH": 5598,
    "BSTAR": 0.00035159405,
    "MEAN_MOTION_DOT": 0.00003855,
    "MEAN_MOTION_DDOT": 0
   }
  },
  {
   "norad": 64578,
   "name": "ICEYE-X57",
   "intl": "2025-135BC",
   "group": "sar",
   "gcat": {
    "class": "B",
    "category": "IMG-R",
    "owner": "ICEUS",
    "state": "US"
   },
   "omm": {
    "OBJECT_NAME": "ICEYE-X57",
    "OBJECT_ID": "2025-135BC",
    "EPOCH": "2026-06-30T22:24:52.569792",
    "MEAN_MOTION": 15.00846347,
    "ECCENTRICITY": 0.00020242,
    "INCLINATION": 97.799,
    "RA_OF_ASC_NODE": 298.4377,
    "ARG_OF_PERICENTER": 63.0781,
    "MEAN_ANOMALY": 297.0649,
    "EPHEMERIS_TYPE": 0,
    "CLASSIFICATION_TYPE": "U",
    "NORAD_CAT_ID": 64578,
    "ELEMENT_SET_NO": 999,
    "REV_AT_EPOCH": 5608,
    "BSTAR": 0.00037068512,
    "MEAN_MOTION_DOT": 0.00004652,
    "MEAN_MOTION_DDOT": 0
   }
  },
  {
   "norad": 66751,
   "name": "ICEYE-X58",
   "intl": "2025-276CP",
   "group": "sar",
   "gcat": {
    "class": "B",
    "category": "IMG-R",
    "owner": "ICEYE",
    "state": "FI"
   },
   "omm": {
    "OBJECT_NAME": "ICEYE-X58",
    "OBJECT_ID": "2025-276CP",
    "EPOCH": "2026-06-30T04:15:46.230624",
    "MEAN_MOTION": 15.17443194,
    "ECCENTRICITY": 0.0001769,
    "INCLINATION": 97.4205,
    "RA_OF_ASC_NODE": 254.3631,
    "ARG_OF_PERICENTER": 305.6987,
    "MEAN_ANOMALY": 54.4082,
    "EPHEMERIS_TYPE": 0,
    "CLASSIFICATION_TYPE": "U",
    "NORAD_CAT_ID": 66751,
    "ELEMENT_SET_NO": 999,
    "REV_AT_EPOCH": 3238,
    "BSTAR": 0.00013087769,
    "MEAN_MOTION_DOT": 0.00002552,
    "MEAN_MOTION_DDOT": 0
   }
  },
  {
   "norad": 66752,
   "name": "ICEYE-X59",
   "intl": "2025-276CQ",
   "group": "sar",
   "gcat": {
    "class": "B",
    "category": "IMG-R",
    "owner": "ELKED",
    "state": "GR"
   },
   "omm": {
    "OBJECT_NAME": "ICEYE-X59",
    "OBJECT_ID": "2025-276CQ",
    "EPOCH": "2026-06-30T03:28:03.043488",
    "MEAN_MOTION": 15.01240269,
    "ECCENTRICITY": 0.00006216,
    "INCLINATION": 97.4341,
    "RA_OF_ASC_NODE": 251.888,
    "ARG_OF_PERICENTER": 111.2775,
    "MEAN_ANOMALY": 248.8516,
    "EPHEMERIS_TYPE": 0,
    "CLASSIFICATION_TYPE": "U",
    "NORAD_CAT_ID": 66752,
    "ELEMENT_SET_NO": 999,
    "REV_AT_EPOCH": 3221,
    "BSTAR": 0.00033943035,
    "MEAN_MOTION_DOT": 0.00004304,
    "MEAN_MOTION_DDOT": 0
   }
  },
  {
   "norad": 46497,
   "name": "ICEYE-X6",
   "intl": "2020-068M",
   "group": "sar",
   "gcat": {
    "class": "B",
    "category": "IMG-R",
    "owner": "ICEYE",
    "state": "FI"
   },
   "omm": {
    "OBJECT_NAME": "ICEYE-X6",
    "OBJECT_ID": "2020-068M",
    "EPOCH": "2026-06-30T22:59:35.367936",
    "MEAN_MOTION": 15.04594477,
    "ECCENTRICITY": 0.00085075,
    "INCLINATION": 98.0968,
    "RA_OF_ASC_NODE": 176.2887,
    "ARG_OF_PERICENTER": 53.1376,
    "MEAN_ANOMALY": 307.0627,
    "EPHEMERIS_TYPE": 0,
    "CLASSIFICATION_TYPE": "U",
    "NORAD_CAT_ID": 46497,
    "ELEMENT_SET_NO": 999,
    "REV_AT_EPOCH": 31530,
    "BSTAR": 0.00017496591,
    "MEAN_MOTION_DOT": 0.00002389,
    "MEAN_MOTION_DDOT": 0
   }
  },
  {
   "norad": 66753,
   "name": "ICEYE-X60",
   "intl": "2025-276CR",
   "group": "sar",
   "gcat": {
    "class": "B",
    "category": "IMG-R",
    "owner": "ELKED",
    "state": "GR"
   },
   "omm": {
    "OBJECT_NAME": "ICEYE-X60",
    "OBJECT_ID": "2025-276CR",
    "EPOCH": "2026-06-30T04:02:48.503616",
    "MEAN_MOTION": 15.1155676,
    "ECCENTRICITY": 0.00020223,
    "INCLINATION": 97.4211,
    "RA_OF_ASC_NODE": 253.4583,
    "ARG_OF_PERICENTER": 18.8087,
    "MEAN_ANOMALY": 341.3218,
    "EPHEMERIS_TYPE": 0,
    "CLASSIFICATION_TYPE": "U",
    "NORAD_CAT_ID": 66753,
    "ELEMENT_SET_NO": 999,
    "REV_AT_EPOCH": 3232,
    "BSTAR": 0.00027112866,
    "MEAN_MOTION_DOT": 0.00004536,
    "MEAN_MOTION_DDOT": 0
   }
  },
  {
   "norad": 66754,
   "name": "ICEYE-X61",
   "intl": "2025-276CS",
   "group": "sar",
   "gcat": {
    "class": "B",
    "category": "IMG-R",
    "owner": "ICEYE",
    "state": "FI"
   },
   "omm": {
    "OBJECT_NAME": "ICEYE-X61",
    "OBJECT_ID": "2025-276CS",
    "EPOCH": "2026-06-30T22:23:25.103616",
    "MEAN_MOTION": 15.1853202,
    "ECCENTRICITY": 0.00016906,
    "INCLINATION": 97.42,
    "RA_OF_ASC_NODE": 255.1665,
    "ARG_OF_PERICENTER": 304.8004,
    "MEAN_ANOMALY": 55.3071,
    "EPHEMERIS_TYPE": 0,
    "CLASSIFICATION_TYPE": "U",
    "NORAD_CAT_ID": 66754,
    "ELEMENT_SET_NO": 999,
    "REV_AT_EPOCH": 3250,
    "BSTAR": 0.00018199875,
    "MEAN_MOTION_DOT": 0.0000369,
    "MEAN_MOTION_DDOT": 0
   }
  },
  {
   "norad": 66755,
   "name": "ICEYE-X62",
   "intl": "2025-276CT",
   "group": "sar",
   "gcat": {
    "class": "B",
    "category": "IMG-R",
    "owner": "MON/WKL",
    "state": "PL"
   },
   "omm": {
    "OBJECT_NAME": "ICEYE-X62",
    "OBJECT_ID": "2025-276CT",
    "EPOCH": "2026-06-30T21:54:16.759008",
    "MEAN_MOTION": 15.10082592,
    "ECCENTRICITY": 0.00015169,
    "INCLINATION": 97.4199,
    "RA_OF_ASC_NODE": 253.6912,
    "ARG_OF_PERICENTER": 3.0179,
    "MEAN_ANOMALY": 357.106,
    "EPHEMERIS_TYPE": 0,
    "CLASSIFICATION_TYPE": "U",
    "NORAD_CAT_ID": 66755,
    "ELEMENT_SET_NO": 999,
    "REV_AT_EPOCH": 3240,
    "BSTAR": 0.00012478139,
    "MEAN_MOTION_DOT": 0.0000197,
    "MEAN_MOTION_DDOT": 0
   }
  },
  {
   "norad": 67372,
   "name": "ICEYE-X63",
   "intl": "2026-004K",
   "group": "sar",
   "gcat": {
    "class": "B",
    "category": "IMG-R",
    "owner": "ICEYE",
    "state": "FI"
   },
   "omm": {
    "OBJECT_NAME": "ICEYE-X63",
    "OBJECT_ID": "2026-004K",
    "EPOCH": "2026-06-30T11:03:38.789568",
    "MEAN_MOTION": 14.88324669,
    "ECCENTRICITY": 0.00058643,
    "INCLINATION": 97.8002,
    "RA_OF_ASC_NODE": 179.8925,
    "ARG_OF_PERICENTER": 87.0002,
    "MEAN_ANOMALY": 273.1885,
    "EPHEMERIS_TYPE": 0,
    "CLASSIFICATION_TYPE": "U",
    "NORAD_CAT_ID": 67372,
    "ELEMENT_SET_NO": 999,
    "REV_AT_EPOCH": 2527,
    "BSTAR": 0.0001142035,
    "MEAN_MOTION_DOT": 0.00001002,
    "MEAN_MOTION_DDOT": 0
   }
  }
 ]
}
